{"type": "FeatureCollection", "features": [ {"type": "Feature", "properties": {"norad_id": 38146, "name": "FENGYUN 1C DEB", "group": "fengyun-1c-debris", "lat": -27.598788271397588, "lon": -118.23774530177607, "alt_km": 732.6963174272714, "timestamp": "2025-12-12T07:43:20.803894+00:00", "meta": {"OBJECT_NAME": "FENGYUN 1C DEB", "OBJECT_ID": "1999-025EQT", "EPOCH": "2025-12-03T10:45:50.404320", "MEAN_MOTION": 14.59033464, "ECCENTRICITY": 0.02030621, "INCLINATION": 99.485, "RA_OF_ASC_NODE": 56.6441, "ARG_OF_PERICENTER": 130.793, "MEAN_ANOMALY": 291.7125, "EPHEMERIS_TYPE": 0, "CLASSIFICATION_TYPE": "U", "NORAD_CAT_ID": 38146, "ELEMENT_SET_NO": 999, "REV_AT_EPOCH": 31744, "BSTAR": 0.0015249301, "MEAN_MOTION_DOT": 9.498e-05, "MEAN_MOTION_DDOT": 0}, "tle": {"line1": "1 38146U 99025EQT 25337.44850005  .00009498  00000+0  15249-2 0  9995", "line2": "2 38146  99.4850  56.6441 0203062 130.7930 291.7125 14.59033464317446"}}, "geometry": {"type": "Point", "coordinates": [-118.23774530177607, -27.598788271397588]}}, {"type": "Feature", "properties": {"norad_id": 38147, "name": "FENGYUN 1C DEB", "group": "fengyun-1c-debris", "lat": 65.39155023614963, "lon": -18.63996025331855, "alt_km": 827.8185606499228, "timestamp": "2025-12-12T07:43:20.803904+00:00", "meta": {"OBJECT_NAME": "FENGYUN 1C DEB", "OBJECT_ID": "1999-025EQU", "EPOCH": "2025-12-09T18:40:37.432992", "MEAN_MOTION": 14.2343176, "ECCENTRICITY": 0.00497476, "INCLINATION": 98.5592, "RA_OF_ASC_NODE": 358.0831, "ARG_OF_PERICENTER": 309.111, "MEAN_ANOMALY": 50.5651, "EPHEMERIS_TYPE": 0, "CLASSIFICATION_TYPE": "U", "NORAD_CAT_ID": 38147, "ELEMENT_SET_NO": 999, "REV_AT_EPOCH": 60345, "BSTAR": 0.00097237466, "MEAN_MOTION_DOT": 2.194e-05, "MEAN_MOTION_DDOT": 0}, "tle": {"line1": "1 38147U 99025EQU 25343.77821103  .00002194  00000+0  97237-3 0  9990", "line2": "2 38147  98.5592 358.0831 0049747 309.1110  50.5651 14.23431760603458"}}, "geometry": {"type": "Point", "coordinates": [-18.63996025331855, 65.39155023614963]}}, {"type": "Feature", "properties": {"norad_id": 38149, "name": "FENGYUN 1C DEB", "group": "fengyun-1c-debris", "lat": -24.922563524738493, "lon": 154.65980674444407, "alt_km": 769.6914588932805, "timestamp": "2025-12-12T07:43:20.803915+00:00", "meta": {"OBJECT_NAME": "FENGYUN 1C DEB", "OBJECT_ID": "1999-025EQW", "EPOCH": "2025-12-07T17:18:01.960128", "MEAN_MOTION": 14.25910713, "ECCENTRICITY": 0.00777044, "INCLINATION": 98.3566, "RA_OF_ASC_NODE": 334.1881, "ARG_OF_PERICENTER": 175.9559, "MEAN_ANOMALY": 184.2267, "EPHEMERIS_TYPE": 0, "CLASSIFICATION_TYPE": "U", "NORAD_CAT_ID": 38149, "ELEMENT_SET_NO": 999, "REV_AT_EPOCH": 70416, "BSTAR": 0.00036135678, "MEAN_MOTION_DOT": 8.47e-06, "MEAN_MOTION_DDOT": 0}, "tle": {"line1": "1 38149U 99025EQW 25341.72085602  .00000847  00000+0  36136-3 0  9995", "line2": "2 38149  98.3566 334.1881 0077704 175.9559 184.2267 14.25910713704169"}}, "geometry": {"type": "Point", "coordinates": [154.65980674444407, -24.922563524738493]}}, {"type": "Feature", "properties": {"norad_id": 38155, "name": "FENGYUN 1C DEB", "group": "fengyun-1c-debris", "lat": 35.664620011368456, "lon": 76.81039942250483, "alt_km": 740.2279685009207, "timestamp": "2025-12-12T07:43:20.803925+00:00", "meta": {"OBJECT_NAME": "FENGYUN 1C DEB", "OBJECT_ID": "1999-025ERC", "EPOCH": "2025-12-09T23:26:42.825120", "MEAN_MOTION": 14.2501054, "ECCENTRICITY": 0.00946971, "INCLINATION": 98.4476, "RA_OF_ASC_NODE": 248.4308, "ARG_OF_PERICENTER": 135.2408, "MEAN_ANOMALY": 225.6463, "EPHEMERIS_TYPE": 0, "CLASSIFICATION_TYPE": "U", "NORAD_CAT_ID": 38155, "ELEMENT_SET_NO": 999, "REV_AT_EPOCH": 63736, "BSTAR": 0.0028448127, "MEAN_MOTION_DOT": 6.943e-05, "MEAN_MOTION_DDOT": 0}, "tle": {"line1": "1 38155U 99025ERC 25343.97688455  .00006943  00000+0  28448-2 0  9995", "line2": "2 38155  98.4476 248.4308 0094697 135.2408 225.6463 14.25010540637364"}}, "geometry": {"type": "Point", "coordinates": [76.81039942250483, 35.664620011368456]}}, {"type": "Feature", "properties": {"norad_id": 38157, "name": "FENGYUN 1C DEB", "group": "fengyun-1c-debris", "lat": -22.471601174953015, "lon": 69.20302017609255, "alt_km": 809.7035306726002, "timestamp": "2025-12-12T07:43:20.803936+00:00", "meta": {"OBJECT_NAME": "FENGYUN 1C DEB", "OBJECT_ID": "1999-025ERE", "EPOCH": "2025-12-10T12:34:26.916096", "MEAN_MOTION": 14.21721958, "ECCENTRICITY": 0.0274075, "INCLINATION": 99.6558, "RA_OF_ASC_NODE": 251.273, "ARG_OF_PERICENTER": 120.5685, "MEAN_ANOMALY": 242.2838, "EPHEMERIS_TYPE": 0, "CLASSIFICATION_TYPE": "U", "NORAD_CAT_ID": 38157, "ELEMENT_SET_NO": 999, "REV_AT_EPOCH": 76216, "BSTAR": 0.00080546, "MEAN_MOTION_DOT": 2.539e-05, "MEAN_MOTION_DDOT": 0}, "tle": {"line1": "1 38157U 99025ERE 25344.52392264  .00002539  00000+0  80546-3 0  9994", "line2": "2 38157  99.6558 251.2730 0274075 120.5685 242.2838 14.21721958762161"}}, "geometry": {"type": "Point", "coordinates": [69.20302017609255, -22.471601174953015]}}, {"type": "Feature", "properties": {"norad_id": 38159, "name": "FENGYUN 1C DEB", "group": "fengyun-1c-debris", "lat": -63.89061194545664, "lon": -102.46653852409901, "alt_km": 860.807915763633, "timestamp": "2025-12-12T07:43:20.803947+00:00", "meta": {"OBJECT_NAME": "FENGYUN 1C DEB", "OBJECT_ID": "1999-025ERG", "EPOCH": "2025-12-04T22:05:20.152032", "MEAN_MOTION": 14.03448484, "ECCENTRICITY": 0.005704, "INCLINATION": 99.3156, "RA_OF_ASC_NODE": 230.39, "ARG_OF_PERICENTER": 2.347, "MEAN_ANOMALY": 357.7952, "EPHEMERIS_TYPE": 0, "CLASSIFICATION_TYPE": "U", "NORAD_CAT_ID": 38159, "ELEMENT_SET_NO": 999, "REV_AT_EPOCH": 83002, "BSTAR": 0.0010527, "MEAN_MOTION_DOT": 1.625e-05, "MEAN_MOTION_DDOT": 0}, "tle": {"line1": "1 38159U 99025ERG 25338.92037213  .00001625  00000+0  10527-2 0  9999", "line2": "2 38159  99.3156 230.3900 0057040   2.3470 357.7952 14.03448484830021"}}, "geometry": {"type": "Point", "coordinates": [-102.46653852409901, -63.89061194545664]}}, {"type": "Feature", "properties": {"norad_id": 38163, "name": "FENGYUN 1C DEB", "group": "fengyun-1c-debris", "lat": -31.191180559923023, "lon": -162.7380216039151, "alt_km": 832.635778765457, "timestamp": "2025-12-12T07:43:20.803957+00:00", "meta": {"OBJECT_NAME": "FENGYUN 1C DEB", "OBJECT_ID": "1999-025ERL", "EPOCH": "2025-12-08T20:43:41.634048", "MEAN_MOTION": 14.05900576, "ECCENTRICITY": 0.0075743, "INCLINATION": 99.1292, "RA_OF_ASC_NODE": 19.3646, "ARG_OF_PERICENTER": 253.1337, "MEAN_ANOMALY": 106.1514, "EPHEMERIS_TYPE": 0, "CLASSIFICATION_TYPE": "U", "NORAD_CAT_ID": 38163, "ELEMENT_SET_NO": 999, "REV_AT_EPOCH": 24487, "BSTAR": 0.0010133, "MEAN_MOTION_DOT": 1.656e-05, "MEAN_MOTION_DDOT": 0}, "tle": {"line1": "1 38163U 99025ERL 25342.86367632  .00001656  00000+0  10133-2 0  9990", "line2": "2 38163  99.1292  19.3646 0075743 253.1337 106.1514 14.05900576244874"}}, "geometry": {"type": "Point", "coordinates": [-162.7380216039151, -31.191180559923023]}}, {"type": "Feature", "properties": {"norad_id": 38166, "name": "FENGYUN 1C DEB", "group": "fengyun-1c-debris", "lat": 53.4308419438807, "lon": 76.93340026297786, "alt_km": 746.3182244345553, "timestamp": "2025-12-12T07:43:20.803968+00:00", "meta": {"OBJECT_NAME": "FENGYUN 1C DEB", "OBJECT_ID": "1999-025ERP", "EPOCH": "2025-12-11T06:17:56.000544", "MEAN_MOTION": 14.30915849, "ECCENTRICITY": 0.00524339, "INCLINATION": 99.0785, "RA_OF_ASC_NODE": 88.2746, "ARG_OF_PERICENTER": 49.2627, "MEAN_ANOMALY": 311.309, "EPHEMERIS_TYPE": 0, "CLASSIFICATION_TYPE": "U", "NORAD_CAT_ID": 38166, "ELEMENT_SET_NO": 999, "REV_AT_EPOCH": 63751, "BSTAR": 0.0051386554, "MEAN_MOTION_DOT": 0.0001368, "MEAN_MOTION_DDOT": 0}, "tle": {"line1": "1 38166U 99025ERP 25345.26245371  .00013680  00000+0  51387-2 0  9991", "line2": "2 38166  99.0785  88.2746 0052433  49.2627 311.3090 14.30915849637519"}}, "geometry": {"type": "Point", "coordinates": [76.93340026297786, 53.4308419438807]}}, {"type": "Feature", "properties": {"norad_id": 38169, "name": "FENGYUN 1C DEB", "group": "fengyun-1c-debris", "lat": 52.0382766813589, "lon": 152.18256293370888, "alt_km": 642.1961997999069, "timestamp": "2025-12-12T07:43:20.803978+00:00", "meta": {"OBJECT_NAME": "FENGYUN 1C DEB", "OBJECT_ID": "1999-025ERS", "EPOCH": "2025-11-22T03:51:43.920000", "MEAN_MOTION": 14.70462609, "ECCENTRICITY": 0.00311315, "INCLINATION": 98.9783, "RA_OF_ASC_NODE": 298.2991, "ARG_OF_PERICENTER": 127.7379, "MEAN_ANOMALY": 232.6652, "EPHEMERIS_TYPE": 0, "CLASSIFICATION_TYPE": "U", "NORAD_CAT_ID": 38169, "ELEMENT_SET_NO": 999, "REV_AT_EPOCH": 60966, "BSTAR": 0.0026738914, "MEAN_MOTION_DOT": 0.00016302, "MEAN_MOTION_DDOT": 0}, "tle": {"line1": "1 38169U 99025ERS 25326.16092500  .00016302  00000+0  26739-2 0  9993", "line2": "2 38169  98.9783 298.2991 0031131 127.7379 232.6652 14.70462609609660"}}, "geometry": {"type": "Point", "coordinates": [152.18256293370888, 52.0382766813589]}}, {"type": "Feature", "properties": {"norad_id": 38173, "name": "FENGYUN 1C DEB", "group": "fengyun-1c-debris", "lat": 41.02295883141301, "lon": 74.44497284880252, "alt_km": 658.3389030910175, "timestamp": "2025-12-12T07:43:20.803988+00:00", "meta": {"OBJECT_NAME": "FENGYUN 1C DEB", "OBJECT_ID": "1999-025ERW", "EPOCH": "2025-12-08T11:11:29.864832", "MEAN_MOTION": 14.37138135, "ECCENTRICITY": 0.01627901, "INCLINATION": 98.9997, "RA_OF_ASC_NODE": 242.4873, "ARG_OF_PERICENTER": 125.1423, "MEAN_ANOMALY": 236.5139, "EPHEMERIS_TYPE": 0, "CLASSIFICATION_TYPE": "U", "NORAD_CAT_ID": 38173, "ELEMENT_SET_NO": 999, "REV_AT_EPOCH": 60582, "BSTAR": 0.0013067614, "MEAN_MOTION_DOT": 4.475e-05, "MEAN_MOTION_DDOT": 0}, "tle": {"line1": "1 38173U 99025ERW 25342.46631788  .00004475  00000+0  13068-2 0  9995", "line2": "2 38173  98.9997 242.4873 0162790 125.1423 236.5139 14.37138135605824"}}, "geometry": {"type": "Point", "coordinates": [74.44497284880252, 41.02295883141301]}}]}